<?xml version="1.0" encoding="UTF-8"?>
<kml xmlns="http://www.opengis.net/kml/2.2">
	<Document>
		<Placemark>
			<LineString>
				<coordinates>
				141.3520432232717,43.06061606880577,0 141.3550324478265,43.04894590809312,0 141.3553673181674,43.04886194742549,0 141.3565366265096,43.04898986063714,0 141.3566417980698,43.0489141789371,0 141.3567559697826,43.048384604821,0 141.3563997222427,43.04680803218064,0 141.3563529000859,43.04647529087169,0 141.3564211447426,43.04613149560833,0 141.3566496355714,43.04533064677647,0 141.3565748690631,43.0446616417854,0 141.3565439750388,43.04398789925014,0 141.3565226134908,43.0426389875352,0 141.3564882917632,43.04186907153924,0 141.3563613729451,43.04111809503893,0 141.3561294071826,43.04031569057793,0 141.356249810288,43.04014072395856,0 141.3586901241934,43.03885720851088,0 141.3607864008831,43.03774593774202,0 141.3608165129414,43.03760519233452,0 141.3602034910116,43.03695270068324,0 141.3596869407397,43.03640642669464,0 141.3594947572174,43.0361148496853,0 141.3594021983681,43.03581457433923,0 141.3594004828638,43.03537844164195,0 141.3595142709714,43.0339519864385,0 141.3596333129951,43.03270448683216,0 141.3596952714816,43.03205620280963,0 141.3596412938357,43.03143269647435,0 141.3587491494755,43.02867000543883,0 141.3585234626159,43.0279293324581,0 141.3586112110887,43.02783967462198,0 141.3678245783144,43.02683807690983,0 141.3679545289741,43.02690785961925,0 141.3688588178596,43.03309594723317,0 141.3698729025624,43.03936953971036,0 141.3700958684103,43.04084624196158,0 141.370220016443,43.0416972996895,0 141.3701909087443,43.042299476118,0 141.3685453237516,43.04947349778116,0 141.3689298640492,43.04980178640566,0 141.3689299186965,43.04989703400885,0 141.3663219398407,43.05149412498936,0 141.359037739801,43.05315170188296,0 141.3588355266354,43.05341368275887,0 141.3567017666062,43.06166669314793,0 141.3550042850204,43.06849510005762,0 141.3532041409603,43.07529184222086,0 141.3528599338411,43.07651181843183,0 141.3523179185694,43.07745376644134,0 141.3515265492172,43.07955506019402,0 141.351160024193,43.08046526890779,0 141.3505363330411,43.08155099765649,0 141.349546480316,43.08346800926419,0 141.3494365587431,43.08366644092797,0 141.3490841711493,43.08506226584985,0 141.3486431606348,43.08664098211588,0 141.3480955277605,43.08869006117551,0 141.347589656203,43.0906867556329,0 141.34744961668,43.09074294865167,0 141.3283859888029,43.08814969312104,0 141.3280561486181,43.08799200070042,0 141.3277534083457,43.0877901681153,0 141.3274483740203,43.08751368403205,0 141.3272778514619,43.08750810461479,0 141.3203306660028,43.09252383146774,0 141.3203053938221,43.09258654160152,0 141.3282689015364,43.10181601916208,0 141.3282476317982,43.10194685021955,0 141.3139192384134,43.10986817530824,0 141.3056016797918,43.11450707022325,0 141.3053941893791,43.11448851924656,0 141.2991682383891,43.10845370205308,0 141.29895630315,43.10843363659413,0 141.2988360027806,43.10854868832324,0 141.2979389390046,43.10935508595923,0 141.2940040771484,43.11222160194359,0 141.2895738602949,43.11538913809225,0 141.2870062239641,43.1174380826476,0 141.2849652206656,43.1187584743536,0 141.284155566728,43.11932190680729,0 141.2797881276867,43.12247472144347,0 141.2749455551921,43.12603051878633,0 141.2719344913127,43.1281604255245,0 141.2640871960471,43.13385520319429,0 141.2622105797819,43.13515045017054,0 141.2603534973924,43.13646257549932,0 141.2492403792918,43.14445094496489,0 141.2471656355757,43.14595960919522,0 141.2451121417418,43.1475140529599,0 141.2433201727159,43.14880714160768,0 141.2415788237161,43.15008960648463,0 141.2415136999281,43.15008410286703,0 141.2414962016932,43.15003950110254,0 141.2423687167896,43.1493760833206,0 141.2433174235873,43.14869733795059,0 141.2451716595953,43.1473565939872,0 141.2470225682266,43.14596195347446,0 141.2538391440241,43.14099902494487,0 141.261920910437,43.13520413618131,0 141.2703404489434,43.12916017702076,0 141.2822848426927,43.12051058392705,0 141.2868586477537,43.11731989119301,0 141.2899622916498,43.11495444988352,0 141.2931797573463,43.11263118141692,0 141.29577265417,43.110745410798,0 141.2974793471297,43.10950258578731,0 141.2988959984575,43.10835492650233,0 141.2992205886255,43.108373020525,0 141.3054113623737,43.11436683161067,0 141.3056325136263,43.11438394584549,0 141.3281631804096,43.10192132906948,0 141.3281749567019,43.10183270246455,0 141.3202404053689,43.09260836698198,0 141.3202767277414,43.09248853125426,0 141.3274014086905,43.08735400042513,0 141.3290316252592,43.08621598950369,0 141.3293106331156,43.08599032468822,0 141.3295160170031,43.0857442969676,0 141.3296774784853,43.08547145605034,0 141.3298009484635,43.08518936453817,0 141.3298294406903,43.08499976385184,0 141.329854766761,43.08478704101478,0 141.3298454686446,43.0842240361274,0 141.3298102938397,43.0837521629691,0 141.3299397262321,43.08367434165226,0 141.33461372693,43.08424839536337,0 141.3347514347842,43.08420952513211,0 141.334825064164,43.0841426167797,0 141.335005431359,43.08340669632186,0 141.3351011979357,43.08334913584805,0 141.3374187817555,43.08361585262404,0 141.3376078345739,43.0835392432552,0 141.3378892784624,43.08222434415322,0 141.3380635014923,43.0821249159646,0 141.339108985364,43.08223859115677,0 141.3394256145116,43.08227917603926,0 141.3394423047807,43.08227137436505,0 141.3398996873328,43.0807715749637,0 141.3399193731837,43.08073174824757,0 141.3399523939819,43.08070602236132,0 141.3400022919767,43.08068404820772,0 141.3400551250969,43.08067868869956,0 141.3403602699439,43.08068365435937,0 141.3404404654803,43.08064506389979,0 141.3405814818733,43.080600144466,0 141.3421581745981,43.0744917929995,0 141.3431354826712,43.07088407407063,0 141.3431670352723,43.0707877133533,0 141.3431362864663,43.0707669537419,0 141.3431291373907,43.07074097743193,0 141.3431599961525,43.07070688388661,0 141.343229232008,43.07070685791688,0 141.3432624243213,43.07073318662589,0 141.3432997716209,43.07076996536625,0 141.3433286896198,43.0708002456656,0 141.3436869477999,43.07096171808803,0 141.3440517263449,43.07110467630876,0 141.3443945886371,43.07121904212464,0 141.3446215939441,43.07124534631993,0 141.3449973331942,43.07123047941528,0 141.3459210225821,43.07097887013256,0 141.3461598755391,43.07087191386144,0 141.3462829575242,43.07071466761954,0 141.3476883197617,43.06520782331599,0 141.3478298218204,43.06497643863064,0 141.3479624709123,43.06475889092851,0 141.3481285156731,43.06455996110128,0 141.3484086602958,43.064309030909,0 141.3489139671549,43.06417288230707,0 141.3492664891669,43.06413646658469,0 141.3496433278399,43.06413828514833,0 141.3508268733086,43.06427232639076,0 141.3510716114818,43.06420941363569,0 141.3514030977759,43.06309231345998,0 141.3519674955004,43.06075425772263,0 
				</coordinates>
			</LineString>
		</Placemark>
	</Document>
</kml>
