<?xml version="1.0" encoding="UTF-8"?>
<kml xmlns="http://www.opengis.net/kml/2.2">
  <Document>
      <Placemark>
        <LineString>
          <coordinates>
            136.945816,35.186614,0
            136.944997,35.183793,0
            136.944605,35.182309,0
            136.944513,35.181894,0
            136.944498,35.181869,0
            136.94446,35.181844,0
            136.944305,35.181809,0
            136.942759,35.181648,0
            136.942157,35.181582,0
            136.941061,35.181458,0
            136.940971,35.181445,0
            136.940874,35.181416,0
            136.940794,35.181334,0
            136.940452,35.180236,0
            136.939987,35.178708,0
            136.939323,35.17656,0
            136.938598,35.174168,0
            136.937776,35.171486,0
            136.937542,35.170713,0
            136.937086,35.169286,0
            136.937023,35.168971,0
            136.936732,35.167241,0
            136.936378,35.1652,0
            136.935815,35.161914,0
            136.935362,35.159265,0
            136.934957,35.156912,0
            136.934641,35.154972,0
            136.934227,35.152629,0
            136.933894,35.150676,0
            136.933749,35.149916,0
            136.933692,35.14936,0
            136.933584,35.146657,0
            136.93355,35.145954,0
            136.933493,35.144233,0
            136.933395,35.141929,0
            136.933341,35.141078,0
            136.933376,35.140599,0
            136.933458,35.139528,0
            136.93355,35.138447,0
            136.93385,35.136362,0
            136.934125,35.134611,0
            136.934353,35.133043,0
            136.93497,35.128953,0
            136.935286,35.126782,0
            136.935444,35.125781,0
            136.935713,35.124063,0
            136.936295,35.12012,0
            136.936438,35.119246,0
            136.936597,35.117987,0
            136.936598,35.117851,0
            136.936589,35.117791,0
            136.936563,35.11776,0
            136.936527,35.117727,0
            136.936463,35.117693,0
            136.936307,35.117672,0
            136.93509,35.117565,0
            136.928792,35.11708,0
            136.923266,35.116661,0
            136.92216,35.116584,0
            136.922117,35.116582,0
            136.922086,35.116589,0
            136.922056,35.116599,0
            136.922047,35.116626,0
            136.922055,35.11664,0
            136.922082,35.116659,0
            136.922459,35.116703,0
            136.92374,35.116804,0
            136.927463,35.117083,0
            136.935924,35.117737,0
            136.936352,35.117786,0
            136.936415,35.117808,0
            136.936454,35.117838,0
            136.936473,35.117878,0
            136.936482,35.117942,0
            136.936427,35.118389,0
            136.936203,35.119944,0
            136.935836,35.122397,0
            136.935675,35.123446,0
            136.935474,35.124781,0
            136.935161,35.126908,0
            136.934998,35.127953,0
            136.934675,35.13012,0
            136.934496,35.131284,0
            136.934313,35.132479,0
            136.933978,35.134688,0
            136.933818,35.135754,0
            136.933486,35.137904,0
            136.933426,35.138322,0
            136.933377,35.139051,0
            136.933286,35.140088,0
            136.933237,35.140713,0
            136.933226,35.141004,0
            136.933253,35.141598,0
            136.933351,35.143671,0
            136.933381,35.144744,0
            136.933473,35.146991,0
            136.933524,35.148067,0
            136.93356,35.149163,0
            136.933584,35.1495,0
            136.933626,35.149886,0
            136.933704,35.150292,0
            136.933868,35.151221,0
            136.934251,35.153502,0
            136.934439,35.154624,0
            136.934621,35.155637,0
            136.934971,35.157687,0
            136.935151,35.158804,0
            136.935327,35.159792,0
            136.935701,35.161968,0
            136.935885,35.163095,0
            136.936208,35.164911,0
            136.936513,35.166667,0
            136.936687,35.167725,0
            136.936848,35.168725,0
            136.936921,35.169136,0
            136.937028,35.169552,0
            136.937323,35.170455,0
            136.937492,35.171038,0
            136.937503,35.171097,0
            136.937499,35.171165,0
            136.937488,35.171205,0
            136.937449,35.171252,0
            136.937372,35.171294,0
            136.937263,35.171315,0
            136.936515,35.171462,0
            136.935879,35.171594,0
            136.935694,35.171634,0
            136.933104,35.172623,0
            136.932645,35.172799,0
            136.932129,35.172977,0
            136.931879,35.173042,0
            136.931149,35.173153,0
            136.92883,35.173479,0
            136.925177,35.174015,0
            136.924788,35.174062,0
            136.924403,35.174079,0
            136.923554,35.174094,0
            136.920837,35.174156,0
            136.918569,35.174125,0
            136.914966,35.174099,0
            136.91396,35.174071,0
            136.912226,35.173962,0
            136.901856,35.173282,0
            136.898208,35.173016,0
            136.897486,35.17296,0
            136.897361,35.172936,0
            136.897282,35.172911,0
            136.897236,35.172879,0
            136.89719,35.172834,0
            136.897156,35.172765,0
            136.897144,35.172673,0
            136.897195,35.172097,0
            136.897357,35.170434,0
            136.897653,35.167828,0
            136.898151,35.163525,0
            136.898225,35.162737,0
            136.898256,35.162698,0
            136.898313,35.162659,0
            136.898433,35.162649,0
            136.901676,35.162682,0
            136.905696,35.16263,0
            136.907094,35.162589,0
            136.909986,35.162289,0
            136.912704,35.161946,0
            136.912774,35.161912,0
            136.912799,35.161871,0
            136.91281,35.161817,0
            136.912788,35.161746,0
            136.912649,35.161453,0
            136.912611,35.161425,0
            136.91254,35.161396,0
            136.912454,35.16138,0
            136.912341,35.161379,0
            136.909916,35.161621,0
            136.909805,35.161647,0
            136.909732,35.16168,0
            136.909694,35.161716,0
            136.909644,35.161843,0
            136.909603,35.162174,0
            136.909539,35.162244,0
            136.909422,35.162283,0
            136.908727,35.162363,0
            136.908613,35.16235,0
            136.908556,35.16228,0
            136.908303,35.1619,0
            136.908243,35.161864,0
            136.908119,35.161848,0
            136.906591,35.162003,0
            136.90463,35.162045,0
            136.899999,35.162071,0
            136.898455,35.162065,0
            136.89824,35.162073,0
            136.898158,35.162096,0
            136.898101,35.162128,0
            136.898054,35.162184,0
            136.898022,35.162249,0
            136.89799,35.162453,0
            136.89787,35.164054,0
            136.897538,35.166927,0
            136.897178,35.170614,0
            136.896735,35.174638,0
            136.896102,35.180491,0
            136.896096,35.180895,0
            136.896134,35.181045,0
            136.896235,35.181174,0
            136.896361,35.181246,0
            136.896551,35.181277,0
            136.900094,35.181562,0
            136.902814,35.181769,0
            136.903884,35.181846,0
            136.904466,35.181939,0
            136.904934,35.182074,0
            136.905035,35.182149,0
            136.905089,35.18225,0
            136.905105,35.182389,0
            136.904981,35.183154,0
            136.904712,35.1847,0
            136.904542,35.186676,0
            136.904339,35.188315,0
            136.904295,35.188682,0
            136.904197,35.189,0
            136.903988,35.18938,0
            136.903706,35.189907,0
            136.903637,35.190067,0
            136.903586,35.190246,0
            136.903536,35.190491,0
            136.903488,35.191081,0
            136.903343,35.192588,0
            136.903352,35.192826,0
            136.903324,35.193557,0
            136.903197,35.194728,0
            136.903162,35.195408,0
            136.903162,35.19616,0
            136.903188,35.196894,0
            136.903189,35.196978,0
            136.903175,35.197037,0
            136.903142,35.197087,0
            136.903088,35.197125,0
            136.902996,35.197154,0
            136.9029,35.197159,0
            136.900727,35.197158,0
            136.89515,35.197094,0
            136.891936,35.197047,0
            136.890025,35.197016,0
            136.886353,35.19698,0
            136.883534,35.196933,0
            136.883213,35.196932,0
            136.88319,35.196942,0
            136.883179,35.196958,0
            136.883178,35.196979,0
            136.88318,35.196998,0
            136.883196,35.197015,0
            136.883221,35.197029,0
            136.883273,35.197041,0
            136.883394,35.197048,0
            136.88483,35.197069,0
            136.889504,35.197126,0
            136.895004,35.197193,0
            136.901992,35.197263,0
            136.902906,35.197255,0
            136.902988,35.197252,0
            136.903077,35.19724,0
            136.903158,35.197215,0
            136.903232,35.197165,0
            136.903279,35.197091,0
            136.903294,35.197041,0
            136.903305,35.196982,0
            136.903306,35.196893,0
            136.9033,35.196225,0
            136.903284,35.195442,0
            136.903328,35.194982,0
            136.903398,35.194033,0
            136.903483,35.193226,0
            136.903515,35.192787,0
            136.903563,35.192451,0
            136.903695,35.191083,0
            136.903746,35.190592,0
            136.903787,35.19031,0
            136.903888,35.190062,0
            136.904009,35.189796,0
            136.904249,35.189393,0
            136.904404,35.189101,0
            136.904458,35.188933,0
            136.904508,35.188739,0
            136.904549,35.188475,0
            136.904581,35.188087,0
            136.904654,35.187353,0
            136.904904,35.184923,0
            136.905179,35.183286,0
            136.905328,35.182542,0
            136.905396,35.182219,0
            136.90538,35.182132,0
            136.905337,35.182072,0
            136.90526,35.182016,0
            136.905184,35.181965,0
            136.905062,35.181908,0
            136.904736,35.181827,0
            136.904227,35.181725,0
            136.903714,35.181634,0
            136.902924,35.181575,0
            136.900247,35.181383,0
            136.89908,35.181301,0
            136.897157,35.181164,0
            136.896553,35.181109,0
            136.896385,35.181063,0
            136.896319,35.181025,0
            136.896276,35.18098,0
            136.896262,35.18093,0
            136.896259,35.18083,0
            136.896282,35.180619,0
            136.896418,35.179465,0
            136.896523,35.178167,0
            136.896659,35.177053,0
            136.896807,35.175858,0
            136.897007,35.174123,0
            136.897072,35.173457,0
            136.897105,35.17326,0
            136.897157,35.173182,0
            136.89725,35.17311,0
            136.897389,35.173092,0
            136.897595,35.173095,0
            136.902406,35.173435,0
            136.910308,35.173986,0
            136.91394,35.174229,0
            136.914598,35.174263,0
            136.916771,35.174276,0
            136.918646,35.174291,0
            136.919798,35.174302,0
            136.921092,35.174307,0
            136.924113,35.174255,0
            136.924856,35.174224,0
            136.927405,35.173854,0
            136.929085,35.173588,0
            136.930044,35.173461,0
            136.930793,35.173348,0
            136.931192,35.17326,0
            136.931606,35.173185,0
            136.93197,35.17313,0
            136.932524,35.172955,0
            136.934102,35.172373,0
            136.935371,35.171884,0
            136.935848,35.171721,0
            136.93607,35.171662,0
            136.936538,35.171576,0
            136.937351,35.171419,0
            136.937473,35.171397,0
            136.937544,35.171408,0
            136.937586,35.17143,0
            136.937632,35.171474,0
            136.937846,35.172184,0
            136.938489,35.174317,0
            136.939151,35.176417,0
            136.939729,35.178333,0
            136.940441,35.180709,0
            136.940653,35.181319,0
            136.940715,35.181423,0
            136.940783,35.181486,0
            136.940854,35.181524,0
            136.940955,35.181554,0
            136.941094,35.18159,0
            136.941493,35.181617,0
            136.943566,35.181826,0
            136.944302,35.181893,0
            136.944433,35.181919,0
            136.944468,35.181947,0
            136.9445,35.182013,0
            136.944737,35.182889,0
            136.945203,35.184689,0
            136.945583,35.185966,0
            136.946029,35.18746,0
            136.946083,35.187626,0
            136.94613,35.187664,0
            136.946198,35.187683,0
            136.946292,35.187686,0
            136.946633,35.187596,0
            136.947728,35.187303,0
            136.948145,35.187101,0
            136.948588,35.18676,0
            136.948772,35.186514,0
            136.948838,35.186271,0
            136.948848,35.186111,0
            136.9488,35.185855,0
            136.94874,35.185645,0
            136.948031,35.1858,0
            136.94732,35.185948,0
          </coordinates>
        </LineString>
      </Placemark>
  </Document>
</kml>
