<?xml version="1.0" encoding="UTF-8"?>
<kml xmlns="http://www.opengis.net/kml/2.2">
  <Document>
    <description>A Route recorded by ツール・ド・ニッポン Tour de Nippon on Jan 16, 19 -- View in full at http://ridewithgps.com/routes/29187936</description>
    <name>東京マラソン2019コース</name>
    <Style id="default_style">
      <LineStyle>
        <color>ff0000ff</color>
        <width>2</width>
      </LineStyle>
    </Style>
    <Placemark>
      <description> -- View in full at http://ridewithgps.com/routes/29187936</description>
      <name>東京マラソン2019コース</name>
      <visibility>1</visibility>
      <flyToView>1</flyToView>
      <styleUrl>#default_style</styleUrl>
      <LineString>
        <extrude>1</extrude>
        <tessellate>1</tessellate>
        <altitudeMode>clampedToGround</altitudeMode>
        <coordinates>
139.69235,35.689566,38.2
139.691825,35.691979,37.4
139.691851,35.692044,37.4
139.691916,35.692099,37.4
139.694429,35.692554,38.2
139.696492,35.692108,37.5
139.696555,35.692121,37.2
139.697007,35.6929,36.0
139.697111,35.69302,36.0
139.697602,35.693269,34.7
139.69805,35.693456,34.4
139.699136,35.693551,34.2
139.70077,35.69356,33.7
139.702792,35.693147,33.7
139.70739,35.692077,32.0
139.708293,35.691888,31.6
139.710975,35.691563,35.1
139.71366,35.691262,34.7
139.715186,35.691347,30.7
139.716925,35.691288,29.7
139.717477,35.69136,29.7
139.721793,35.692324,21.8
139.723595,35.692336,19.0
139.725733,35.692096,19.2
139.725964,35.69204,19.3
139.727774,35.691393,19.3
139.727965,35.691356,19.6
139.729976,35.691171,19.5
139.731232,35.691218,19.5
139.734142,35.691823,18.8
139.734523,35.691922,18.1
139.735574,35.692482,16.8
139.736837,35.693475,17.1
139.738618,35.695552,18.7
139.739006,35.695798,17.2
139.739839,35.697011,9.9
139.741651,35.699159,9.5
139.742773,35.700439,9.1
139.74376,35.701807,6.7
139.744565,35.702495,5.3
139.74471,35.702495,5.3
139.746421,35.701346,7.8
139.747531,35.70071,9.1
139.750106,35.698244,9.5
139.750289,35.698196,9.5
139.754323,35.697556,6.8
139.755353,35.696061,5.5
139.755524,35.69597,5.4
139.760664,35.696013,6.5
139.762664,35.694615,7.5
139.763061,35.694505,7.5
139.764075,35.69444,7.3
139.765513,35.694741,6.8
139.768565,35.695839,4.8
139.769922,35.695791,4.4
139.770148,35.695748,4.3
139.770233,35.695647,4.3
139.770361,35.695246,4.4
139.771435,35.692436,4.3
139.773077,35.688507,4.0
139.774654,35.684868,4.0
139.774732,35.684555,3.9
139.774649,35.684393,3.9
139.774396,35.683757,3.9
139.77393,35.682653,3.9
139.773965,35.682576,3.9
139.780002,35.680108,2.7
139.780144,35.680138,2.7
139.781689,35.682496,2.4
139.787982,35.685646,1.6
139.788014,35.685701,1.6
139.785874,35.688589,2.7
139.784726,35.690347,3.3
139.784425,35.690713,3.5
139.784733,35.69109,3.5
139.785292,35.695704,2.6
139.786171,35.697249,2.4
139.789122,35.701581,2.2
139.789572,35.702108,2.2
139.790353,35.702734,2.2
139.791147,35.703408,2.2
139.79197,35.704059,2.2
139.793327,35.705257,2.2
139.794395,35.706438,2.2
139.796042,35.70879,2.2
139.796128,35.709217,2.2
139.796366,35.710709,2.2
139.796506,35.710776,2.2
139.797363,35.710672,2.2
139.797438,35.710478,2.2
139.796899,35.70957,2.2
139.796195,35.708768,2.2
139.794524,35.70639,2.2
139.793403,35.705218,2.2
139.791914,35.703926,2.2
139.790398,35.702655,2.2
139.789401,35.701742,2.2
139.789497,35.701637,2.2
139.792314,35.701389,2.2
139.792491,35.701337,2.2
139.795103,35.700392,2.1
139.79705,35.700243,2.0
139.797147,35.70019,2.0
139.797748,35.694092,1.7
139.798214,35.689469,2.0
139.79868,35.683508,1.7
139.799071,35.679613,0.2
139.797476,35.6775,0.7
139.796433,35.676122,1.1
139.796026,35.674206,1.4
139.795087,35.67255,1.7
139.795134,35.672371,1.7
139.79937,35.670433,1.1
139.799366,35.670425,1.1
139.795055,35.672288,1.7
139.79499,35.672345,1.7
139.794926,35.672419,1.7
139.794905,35.672537,1.7
139.795902,35.674132,1.4
139.796305,35.67617,1.1
139.797378,35.677561,0.7
139.799,35.679609,0.2
139.799,35.679648,0.2
139.798579,35.683526,1.7
139.798043,35.689422,2.0
139.797619,35.694048,1.7
139.797069,35.700095,2.0
139.796938,35.700158,2.0
139.796549,35.700198,2.0
139.795092,35.700325,2.1
139.792169,35.70135,2.2
139.789366,35.701509,2.2
139.789218,35.701445,2.2
139.788183,35.70006,2.2
139.786316,35.697207,2.4
139.785866,35.696425,2.4
139.785436,35.695693,2.5
139.784862,35.691042,3.4
139.78476,35.690489,3.3
139.785989,35.688607,2.6
139.787094,35.687194,2.0
139.78806,35.685764,1.6
139.788078,35.685712,1.6
139.788076,35.685654,1.6
139.788046,35.685598,1.6
139.78495,35.684016,1.9
139.781832,35.682443,2.4
139.780203,35.679997,2.7
139.78,35.679969,2.7
139.773757,35.682402,3.9
139.773667,35.682376,3.9
139.771704,35.679269,3.9
139.76889,35.674957,3.8
139.765151,35.671401,3.6
139.76506,35.671384,3.6
139.764987,35.671397,3.6
139.76326,35.672595,3.3
139.76157,35.673521,2.8
139.759674,35.67475,2.4
139.759588,35.674763,2.6
139.759518,35.674742,2.8
139.758295,35.673556,2.7
139.757673,35.672953,2.6
139.756029,35.670249,3.1
139.755464,35.669286,3.4
139.754972,35.668318,3.6
139.75274,35.663563,4.3
139.751141,35.66026,4.5
139.750616,35.659083,4.7
139.750375,35.657479,4.5
139.750138,35.656006,4.5
139.74976,35.653674,4.4
139.74943,35.651394,4.0
139.749205,35.650016,4.0
139.748771,35.647616,4.0
139.746098,35.646206,4.4
139.74412,35.645055,4.4
139.74309,35.644027,4.4
139.742285,35.642806,4.7
139.741276,35.640904,4.8
139.739667,35.637801,4.8
139.73882,35.635757,4.8
139.73809,35.633598,4.9
139.737725,35.632328,4.8
139.737689,35.632334,4.8
139.737972,35.633584,4.9
139.73869,35.635812,4.8
139.73949,35.63784,4.8
139.740316,35.639377,4.9
139.741089,35.64094,4.9
139.742158,35.642828,4.7
139.742966,35.644049,4.5
139.744007,35.645099,4.4
139.746003,35.646307,4.4
139.748588,35.647641,4.0
139.748685,35.647789,4.2
139.749248,35.650722,4.0
139.749712,35.653723,4.4
139.74988,35.654772,4.7
139.750104,35.656114,4.5
139.750283,35.657488,4.5
139.750567,35.659149,4.8
139.752585,35.663624,4.3
139.753775,35.666016,4.0
139.754816,35.668375,3.6
139.755374,35.669562,3.4
139.756114,35.670715,2.9
139.757509,35.673003,2.8
139.75942,35.674866,3.3
139.759528,35.674885,3.1
139.759771,35.674823,2.6
139.7608,35.674228,2.1
139.760892,35.674234,2.2
139.762203,35.67821,3.7
139.763405,35.68184,2.9
139.763394,35.681883,2.9
139.763355,35.681914,2.9
139.76212,35.682189,3.6
</coordinates>
      </LineString>
    </Placemark>
    <Placemark id="5f1fa67cf36d510f50b5">
      <name>東京駅前広場</name>
      <description/>
      <Point>
        <coordinates>139.7618344247188,35.68229406318254,0</coordinates>
      </Point>
    </Placemark>
    <Placemark id="61e19752d26556612b19">
      <name>隅田公園</name>
      <description/>
      <Point>
        <coordinates>139.79842753933804,35.71073794530518,0</coordinates>
      </Point>
    </Placemark>
    <Placemark id="df4e7c0d3579bc6ced96">
      <name>富岡八幡宮</name>
      <description/>
      <Point>
        <coordinates>139.7995526832209,35.6718943670339,0</coordinates>
      </Point>
    </Placemark>
    <Placemark id="2ad1c6e2ae905c207042">
      <name>高輪公園</name>
      <description/>
      <Point>
        <coordinates>139.73556755876461,35.63293803209382,0</coordinates>
      </Point>
    </Placemark>
  </Document>
</kml>
